{
  "type": "FeatureCollection",
  "features": [
    {
      "type": "Feature",
      "properties": {
        "norad_id": 66633,
        "name": "STARLINK-35948",
        "group": "last-30-days",
        "lat": 19.12265298753263,
        "lon": -12.250160943126152,
        "alt_km": 416.65036347283876,
        "timestamp": "2025-12-13T15:35:10.876942+00:00",
        "meta_object_name": "STARLINK-35948",
        "meta_object_id": "2025-271S",
        "meta_epoch": "2025-12-12T20:00:01.999872",
        "meta_mean_motion": 15.49302804,
        "meta_eccentricity": 0.00012735,
        "meta_inclination": 53.1595,
        "meta_ra_of_asc_node": 186.7199,
        "meta_arg_of_pericenter": 93.5768,
        "meta_mean_anomaly": 188.0201,
        "meta_ephemeris_type": 0,
        "meta_classification_type": "U",
        "meta_norad_cat_id": 66633,
        "meta_element_set_no": 999,
        "meta_rev_at_epoch": 425,
        "meta_bstar": -0.00080132585,
        "meta_mean_motion_dot": -0.00044751,
        "meta_mean_motion_ddot": 0,
        "tle_line1": "1 66633U 25271S   25346.83335648 -.00044751  00000+0 -80133-3 0  9991",
        "tle_line2": "2 66633  53.1595 186.7199 0001273  93.5768 188.0201 15.49302804  4253"
      },
      "geometry": {
        "type": "Point",
        "coordinates": [
          -12.250160943126152,
          19.12265298753263
        ]
      }
    },
    {
      "type": "Feature",
      "properties": {
        "norad_id": 66634,
        "name": "STARLINK-35967",
        "group": "last-30-days",
        "lat": 17.64258608347444,
        "lon": -10.981657641327077,
        "alt_km": 416.9069242297419,
        "timestamp": "2025-12-13T15:35:10.876952+00:00",
        "meta_object_name": "STARLINK-35967",
        "meta_object_id": "2025-271T",
        "meta_epoch": "2025-12-12T20:00:01.999872",
        "meta_mean_motion": 15.49306084,
        "meta_eccentricity": 0.00012746,
        "meta_inclination": 53.1597,
        "meta_ra_of_asc_node": 186.7158,
        "meta_arg_of_pericenter": 95.6219,
        "meta_mean_anomaly": 187.8914,
        "meta_ephemeris_type": 0,
        "meta_classification_type": "U",
        "meta_norad_cat_id": 66634,
        "meta_element_set_no": 999,
        "meta_rev_at_epoch": 419,
        "meta_bstar": -0.00093124779,
        "meta_mean_motion_dot": -0.00051893,
        "meta_mean_motion_ddot": 0,
        "tle_line1": "1 66634U 25271T   25346.83335648 -.00051893  00000+0 -93125-3 0  9992",
        "tle_line2": "2 66634  53.1597 186.7158 0001274  95.6219 187.8914 15.49306084  4191"
      },
      "geometry": {
        "type": "Point",
        "coordinates": [
          -10.981657641327077,
          17.64258608347444
        ]
      }
    },
    {
      "type": "Feature",
      "properties": {
        "norad_id": 66635,
        "name": "STARLINK-35955",
        "group": "last-30-days",
        "lat": 16.309043549477078,
        "lon": -9.861664766793213,
        "alt_km": 418.2705787781224,
        "timestamp": "2025-12-13T15:35:10.876962+00:00",
        "meta_object_name": "STARLINK-35955",
        "meta_object_id": "2025-271U",
        "meta_epoch": "2025-12-12T20:00:01.999872",
        "meta_mean_motion": 15.49503802,
        "meta_eccentricity": 3.724e-05,
        "meta_inclination": 53.1598,
        "meta_ra_of_asc_node": 186.7125,
        "meta_arg_of_pericenter": 118.7657,
        "meta_mean_anomaly": 166.6477,
        "meta_ephemeris_type": 0,
        "meta_classification_type": "U",
        "meta_norad_cat_id": 66635,
        "meta_element_set_no": 999,
        "meta_rev_at_epoch": 425,
        "meta_bstar": -0.0066271895,
        "meta_mean_motion_dot": -0.00355173,
        "meta_mean_motion_ddot": 0,
        "tle_line1": "1 66635U 25271U   25346.83335648 -.00355173  00000+0 -66272-2 0  9993",
        "tle_line2": "2 66635  53.1598 186.7125 0000372 118.7657 166.6477 15.49503802  4251"
      },
      "geometry": {
        "type": "Point",
        "coordinates": [
          -9.861664766793213,
          16.309043549477078
        ]
      }
    },
    {
      "type": "Feature",
      "properties": {
        "norad_id": 66636,
        "name": "STARLINK-35968",
        "group": "last-30-days",
        "lat": 14.671484336087715,
        "lon": -8.515036430791787,
        "alt_km": 417.57384227093553,
        "timestamp": "2025-12-13T15:35:10.876972+00:00",
        "meta_object_name": "STARLINK-35968",
        "meta_object_id": "2025-271V",
        "meta_epoch": "2025-12-12T20:00:01.999872",
        "meta_mean_motion": 15.49193993,
        "meta_eccentricity": 8.599e-05,
        "meta_inclination": 53.1597,
        "meta_ra_of_asc_node": 186.7078,
        "meta_arg_of_pericenter": 67.0945,
        "meta_mean_anomaly": 220.2625,
        "meta_ephemeris_type": 0,
        "meta_classification_type": "U",
        "meta_norad_cat_id": 66636,
        "meta_element_set_no": 999,
        "meta_rev_at_epoch": 425,
        "meta_bstar": 0.0012505411,
        "meta_mean_motion_dot": 0.00069439,
        "meta_mean_motion_ddot": 0,
        "tle_line1": "1 66636U 25271V   25346.83335648  .00069439  00000+0  12505-2 0  9999",
        "tle_line2": "2 66636  53.1597 186.7078 0000859  67.0945 220.2625 15.49193993  4252"
      },
      "geometry": {
        "type": "Point",
        "coordinates": [
          -8.515036430791787,
          14.671484336087715
        ]
      }
    },
    {
      "type": "Feature",
      "properties": {
        "norad_id": 66637,
        "name": "STARLINK-35953",
        "group": "last-30-days",
        "lat": 13.166308665302225,
        "lon": -7.2997596442205275,
        "alt_km": 417.7946134510603,
        "timestamp": "2025-12-13T15:35:10.876982+00:00",
        "meta_object_name": "STARLINK-35953",
        "meta_object_id": "2025-271W",
        "meta_epoch": "2025-12-12T20:00:01.999872",
        "meta_mean_motion": 15.49194395,
        "meta_eccentricity": 6.832e-05,
        "meta_inclination": 53.1596,
        "meta_ra_of_asc_node": 186.704,
        "meta_arg_of_pericenter": 69.7473,
        "meta_mean_anomaly": 219.5244,
        "meta_ephemeris_type": 0,
        "meta_classification_type": "U",
        "meta_norad_cat_id": 66637,
        "meta_element_set_no": 999,
        "meta_rev_at_epoch": 425,
        "meta_bstar": 0.0012461835,
        "meta_mean_motion_dot": 0.00069195,
        "meta_mean_motion_ddot": 0,
        "tle_line1": "1 66637U 25271W   25346.83335648  .00069195  00000+0  12462-2 0  9991",
        "tle_line2": "2 66637  53.1596 186.7040 0000683  69.7473 219.5244 15.49194395  4256"
      },
      "geometry": {
        "type": "Point",
        "coordinates": [
          -7.2997596442205275,
          13.166308665302225
        ]
      }
    },
    {
      "type": "Feature",
      "properties": {
        "norad_id": 66638,
        "name": "STARLINK-35972",
        "group": "last-30-days",
        "lat": 11.644996811548912,
        "lon": -6.0908636480878515,
        "alt_km": 417.9953018588694,
        "timestamp": "2025-12-13T15:35:10.876991+00:00",
        "meta_object_name": "STARLINK-35972",
        "meta_object_id": "2025-271X",
        "meta_epoch": "2025-12-12T20:00:01.999872",
        "meta_mean_motion": 15.49197809,
        "meta_eccentricity": 6.251e-05,
        "meta_inclination": 53.1597,
        "meta_ra_of_asc_node": 186.7004,
        "meta_arg_of_pericenter": 74.007,
        "meta_mean_anomaly": 217.1812,
        "meta_ephemeris_type": 0,
        "meta_classification_type": "U",
        "meta_norad_cat_id": 66638,
        "meta_element_set_no": 999,
        "meta_rev_at_epoch": 425,
        "meta_bstar": 0.0012522631,
        "meta_mean_motion_dot": 0.00069546,
        "meta_mean_motion_ddot": 0,
        "tle_line1": "1 66638U 25271X   25346.83335648  .00069546  00000+0  12523-2 0  9990",
        "tle_line2": "2 66638  53.1597 186.7004 0000625  74.0070 217.1812 15.49197809  4254"
      },
      "geometry": {
        "type": "Point",
        "coordinates": [
          -6.0908636480878515,
          11.644996811548912
        ]
      }
    },
    {
      "type": "Feature",
      "properties": {
        "norad_id": 66639,
        "name": "STARLINK-35908",
        "group": "last-30-days",
        "lat": 10.122227080413838,
        "lon": -4.898896747669351,
        "alt_km": 418.26466045319194,
        "timestamp": "2025-12-13T15:35:10.877001+00:00",
        "meta_object_name": "STARLINK-35908",
        "meta_object_id": "2025-271Y",
        "meta_epoch": "2025-12-12T20:00:01.999872",
        "meta_mean_motion": 15.49198556,
        "meta_eccentricity": 6.827e-05,
        "meta_inclination": 53.1597,
        "meta_ra_of_asc_node": 186.6959,
        "meta_arg_of_pericenter": 70.0849,
        "meta_mean_anomaly": 223.0223,
        "meta_ephemeris_type": 0,
        "meta_classification_type": "U",
        "meta_norad_cat_id": 66639,
        "meta_element_set_no": 999,
        "meta_rev_at_epoch": 425,
        "meta_bstar": 0.0012556767,
        "meta_mean_motion_dot": 0.0006974,
        "meta_mean_motion_ddot": 0,
        "tle_line1": "1 66639U 25271Y   25346.83335648  .00069740  00000+0  12557-2 0  9994",
        "tle_line2": "2 66639  53.1597 186.6959 0000682  70.0849 223.0223 15.49198556  4258"
      },
      "geometry": {
        "type": "Point",
        "coordinates": [
          -4.898896747669351,
          10.122227080413838
        ]
      }
    }
  ]
}